*******************************************************************************
Ephemeris / WWW_USER Mon Jul 15 19:24:44 2024 Pasadena, USA      / Horizons    
*******************************************************************************
Target body name: (2018 RB1)                      {source: JPL#5}
Center body name: Earth (399)                     {source: DE441}
Center-site name: Gemini South Obs., Cerro Pachon
*******************************************************************************
Start time      : A.D. 2018-Nov-01 23:14:00.0000 UT      
Stop  time      : A.D. 2018-Nov-02 09:38:00.0000 UT      
Step-size       : 1 minutes
*******************************************************************************
Target pole/equ : undefined
Target radii    : undefined                                                    
Center geodetic : 289.2634, -30.2406227, 2.71233  {E-lon(deg),Lat(deg),Alt(km)}
Center cylindric: 289.2634,5517.21435,-3194.81213 {E-lon(deg),Dxy(km),Dz(km)}
Center pole/equ : ITRF93                          {East-longitude positive}
Center radii    : 6378.137, 6378.137, 6356.752 km {Equator_a, b, pole_c}       
Target primary  : Sun
Vis. interferer : MOON (R_eq= 1737.400) km        {source: DE441}
Rel. light bend : Sun                             {source: DE441}
Rel. lght bnd GM: 1.3271E+11 km^3/s^2                                          
Small-body perts: Yes                             {source: SB441-N16}
Atmos refraction: NO (AIRLESS)
RA format       : HMS
Time format     : CAL 
Calendar mode   : Mixed Julian/Gregorian
RTS-only print  : NO       
EOP file        : eop.240715.p241008                                           
EOP coverage    : DATA-BASED 1962-JAN-20 TO 2024-JUL-15. PREDICTS-> 2024-OCT-07
Units conversion: 1 au= 149597870.700 km, c= 299792.458 km/s, 1 day= 86400.0 s 
Table cut-offs 1: Elevation (-90.0deg=NO ),Airmass (>38.000=NO), Daylight (YES)
Table cut-offs 2: Solar elongation (  0.0,180.0=NO ),Local Hour Angle( 0.0=NO )
Table cut-offs 3: RA/DEC angular rate (     0.0=NO )                           
*******************************************************************************
Initial IAU76/J2000 heliocentric ecliptic osculating elements (au, days, deg.):
  EPOCH=  2458368.5 ! 2018-Sep-07.00 (TDB)         Residual RMS= .299          
   EC= .2816093255492492   QR= .7991213126369837   TP= 2458438.7854507864      
   OM= 166.9631715555783   W=  267.8210074013559   IN= 5.127543488636634       
  Equivalent ICRF heliocentric cartesian coordinates (au, au/d):
   X= 9.883258176612897E-01  Y=-2.654573099408967E-01  Z=-1.095366816313374E-01
  VX= 1.112505236628486E-04 VY= 1.667631342697191E-02 VZ= 5.559084906068471E-03
Asteroid physical parameters (km, seconds, rotational period in hours):        
   GM= n.a.                RAD= n.a.               ROTPER= n.a.                
   H= 27.9                 G= .150                 B-V= n.a.                   
                           ALBEDO= n.a.            STYP= n.a.                  
*******************************************************************************
 Date__(UT)__HR:MN     R.A._________(ICRF)_________DEC
******************************************************
$$SOE
 2018-Nov-02 05:23     11 25 26.912751 -10 41 45.95853
 2018-Nov-02 05:24     11 25 26.996697 -10 41 45.97617
 2018-Nov-02 05:25     11 25 27.080615 -10 41 45.99386
 2018-Nov-02 05:26     11 25 27.164504 -10 41 46.01160
 2018-Nov-02 05:27     11 25 27.248364 -10 41 46.02941
 2018-Nov-02 05:28     11 25 27.332196 -10 41 46.04727
 2018-Nov-02 05:29     11 25 27.415998 -10 41 46.06518
 2018-Nov-02 05:30     11 25 27.499771 -10 41 46.08315
 2018-Nov-02 05:31     11 25 27.583515 -10 41 46.10117
 2018-Nov-02 05:32     11 25 27.667231 -10 41 46.11924
 2018-Nov-02 05:33     11 25 27.750916 -10 41 46.13737
 2018-Nov-02 05:34     11 25 27.834573 -10 41 46.15556
 2018-Nov-02 05:35     11 25 27.918200 -10 41 46.17379
 2018-Nov-02 05:36     11 25 28.001798 -10 41 46.19208
 2018-Nov-02 05:37     11 25 28.085366 -10 41 46.21042
 2018-Nov-02 05:38     11 25 28.168905 -10 41 46.22881
 2018-Nov-02 05:39     11 25 28.252414 -10 41 46.24725
 2018-Nov-02 05:40     11 25 28.335893 -10 41 46.26574
 2018-Nov-02 05:41     11 25 28.419342 -10 41 46.28429
 2018-Nov-02 05:42     11 25 28.502762 -10 41 46.30288
 2018-Nov-02 05:43     11 25 28.586152 -10 41 46.32152
 2018-Nov-02 05:44     11 25 28.669512 -10 41 46.34022
 2018-Nov-02 05:45     11 25 28.752841 -10 41 46.35896
 2018-Nov-02 05:46     11 25 28.836141 -10 41 46.37775
 2018-Nov-02 05:47     11 25 28.919411 -10 41 46.39659
 2018-Nov-02 05:48     11 25 29.002650 -10 41 46.41547
 2018-Nov-02 05:49     11 25 29.085859 -10 41 46.43441
 2018-Nov-02 05:50     11 25 29.169038 -10 41 46.45339
 2018-Nov-02 05:51     11 25 29.252186 -10 41 46.47241
 2018-Nov-02 05:52     11 25 29.335304 -10 41 46.49149
 2018-Nov-02 05:53     11 25 29.418392 -10 41 46.51061
 2018-Nov-02 05:54     11 25 29.501449 -10 41 46.52977
 2018-Nov-02 05:55     11 25 29.584475 -10 41 46.54898
 2018-Nov-02 05:56     11 25 29.667470 -10 41 46.56824
 2018-Nov-02 05:57     11 25 29.750435 -10 41 46.58754
 2018-Nov-02 05:58     11 25 29.833369 -10 41 46.60688
 2018-Nov-02 05:59     11 25 29.916273 -10 41 46.62627
 2018-Nov-02 06:00     11 25 29.999145 -10 41 46.64570
 2018-Nov-02 06:01     11 25 30.081987 -10 41 46.66517
 2018-Nov-02 06:02     11 25 30.164797 -10 41 46.68468
 2018-Nov-02 06:03     11 25 30.247576 -10 41 46.70424
 2018-Nov-02 06:04     11 25 30.330325 -10 41 46.72384
 2018-Nov-02 06:05     11 25 30.413042 -10 41 46.74348
 2018-Nov-02 06:06     11 25 30.495728 -10 41 46.76316
 2018-Nov-02 06:07     11 25 30.578383 -10 41 46.78288
 2018-Nov-02 06:08     11 25 30.661006 -10 41 46.80264
 2018-Nov-02 06:09     11 25 30.743598 -10 41 46.82244
 2018-Nov-02 06:10     11 25 30.826159 -10 41 46.84229
 2018-Nov-02 06:11     11 25 30.908688 -10 41 46.86216
 2018-Nov-02 06:12     11 25 30.991186 -10 41 46.88208
 2018-Nov-02 06:13     11 25 31.073653 -10 41 46.90204
 2018-Nov-02 06:14     11 25 31.156087 -10 41 46.92203
 2018-Nov-02 06:15     11 25 31.238491 -10 41 46.94206
 2018-Nov-02 06:16     11 25 31.320862 -10 41 46.96213
 2018-Nov-02 06:17     11 25 31.403202 -10 41 46.98224
 2018-Nov-02 06:18     11 25 31.485510 -10 41 47.00238
 2018-Nov-02 06:19     11 25 31.567786 -10 41 47.02255
 2018-Nov-02 06:20     11 25 31.650031 -10 41 47.04276
 2018-Nov-02 06:21     11 25 31.732244 -10 41 47.06301
 2018-Nov-02 06:22     11 25 31.814424 -10 41 47.08329
 2018-Nov-02 06:23     11 25 31.896573 -10 41 47.10360
 2018-Nov-02 06:24     11 25 31.978690 -10 41 47.12395
 2018-Nov-02 06:25     11 25 32.060775 -10 41 47.14434
 2018-Nov-02 06:26     11 25 32.142828 -10 41 47.16475
 2018-Nov-02 06:27     11 25 32.224848 -10 41 47.18520
 2018-Nov-02 06:28     11 25 32.306837 -10 41 47.20568
 2018-Nov-02 06:29     11 25 32.388794 -10 41 47.22619
 2018-Nov-02 06:30     11 25 32.470718 -10 41 47.24673
 2018-Nov-02 06:31     11 25 32.552610 -10 41 47.26730
 2018-Nov-02 06:32     11 25 32.634470 -10 41 47.28791
 2018-Nov-02 06:33     11 25 32.716297 -10 41 47.30854
 2018-Nov-02 06:34     11 25 32.798092 -10 41 47.32920
 2018-Nov-02 06:35     11 25 32.879855 -10 41 47.34990
 2018-Nov-02 06:36     11 25 32.961586 -10 41 47.37062
 2018-Nov-02 06:37  m  11 25 33.043284 -10 41 47.39137
 2018-Nov-02 06:38  m  11 25 33.124950 -10 41 47.41214
 2018-Nov-02 06:39  m  11 25 33.206583 -10 41 47.43295
 2018-Nov-02 06:40  m  11 25 33.288183 -10 41 47.45378
 2018-Nov-02 06:41  m  11 25 33.369752 -10 41 47.47464
 2018-Nov-02 06:42  m  11 25 33.451287 -10 41 47.49553
 2018-Nov-02 06:43  m  11 25 33.532790 -10 41 47.51644
 2018-Nov-02 06:44  m  11 25 33.614261 -10 41 47.53738
 2018-Nov-02 06:45  m  11 25 33.695699 -10 41 47.55834
 2018-Nov-02 06:46  m  11 25 33.777104 -10 41 47.57933
 2018-Nov-02 06:47  m  11 25 33.858476 -10 41 47.60034
 2018-Nov-02 06:48  r  11 25 33.939816 -10 41 47.62137
 2018-Nov-02 06:49  m  11 25 34.021123 -10 41 47.64243
 2018-Nov-02 06:50  m  11 25 34.102398 -10 41 47.66351
 2018-Nov-02 06:51  m  11 25 34.183639 -10 41 47.68462
 2018-Nov-02 06:52  m  11 25 34.264848 -10 41 47.70575
 2018-Nov-02 06:53  m  11 25 34.346024 -10 41 47.72690
 2018-Nov-02 06:54  m  11 25 34.427167 -10 41 47.74807
 2018-Nov-02 06:55  m  11 25 34.508278 -10 41 47.76926
 2018-Nov-02 06:56  m  11 25 34.589355 -10 41 47.79047
 2018-Nov-02 06:57  m  11 25 34.670400 -10 41 47.81170
 2018-Nov-02 06:58  m  11 25 34.751412 -10 41 47.83295
 2018-Nov-02 06:59  m  11 25 34.832391 -10 41 47.85423
 2018-Nov-02 07:00  m  11 25 34.913337 -10 41 47.87552
 2018-Nov-02 07:01  m  11 25 34.994250 -10 41 47.89683
 2018-Nov-02 07:02  m  11 25 35.075130 -10 41 47.91815
 2018-Nov-02 07:03  m  11 25 35.155977 -10 41 47.93950
 2018-Nov-02 07:04  m  11 25 35.236792 -10 41 47.96086
 2018-Nov-02 07:05  m  11 25 35.317573 -10 41 47.98224
 2018-Nov-02 07:06  m  11 25 35.398321 -10 41 48.00363
 2018-Nov-02 07:07  m  11 25 35.479036 -10 41 48.02505
 2018-Nov-02 07:08  m  11 25 35.559719 -10 41 48.04647
 2018-Nov-02 07:09  m  11 25 35.640368 -10 41 48.06792
 2018-Nov-02 07:10  m  11 25 35.720984 -10 41 48.08937
 2018-Nov-02 07:11  m  11 25 35.801568 -10 41 48.11085
 2018-Nov-02 07:12  m  11 25 35.882118 -10 41 48.13233
 2018-Nov-02 07:13  m  11 25 35.962635 -10 41 48.15383
 2018-Nov-02 07:14  m  11 25 36.043119 -10 41 48.17534
 2018-Nov-02 07:15  m  11 25 36.123570 -10 41 48.19687
 2018-Nov-02 07:16  m  11 25 36.203988 -10 41 48.21841
 2018-Nov-02 07:17  m  11 25 36.284373 -10 41 48.23996
 2018-Nov-02 07:18  m  11 25 36.364725 -10 41 48.26152
 2018-Nov-02 07:19  m  11 25 36.445044 -10 41 48.28309
 2018-Nov-02 07:20  m  11 25 36.525329 -10 41 48.30467
 2018-Nov-02 07:21  m  11 25 36.605582 -10 41 48.32627
 2018-Nov-02 07:22  m  11 25 36.685802 -10 41 48.34787
 2018-Nov-02 07:23  m  11 25 36.765988 -10 41 48.36948
 2018-Nov-02 07:24  m  11 25 36.846142 -10 41 48.39111
 2018-Nov-02 07:25  m  11 25 36.926262 -10 41 48.41274
